NORAD_CAT_ID,OBJECT_NAME,OBJECT_TYPE,EPOCH,MEAN_MOTION,ECCENTRICITY,INCLINATION,RA_OF_ASC_NODE,ARG_OF_PERICENTER,MEAN_ANOMALY,BSTAR,MEAN_MOTION_DOT,MEAN_MOTION_DDOT,TLE_LINE0,TLE_LINE1,TLE_LINE2,SEMIMAJOR_AXIS,PERIOD,APOGEE,PERIGEE,DECAYED
51130.0,STARLINK-3395,PAYLOAD,2023-08-09 00:34:04,15.08835403,0.0001214,53.2162,215.4032,90.4325,269.6806,8.2274e-05,1.022e-05,0.0,0 STARLINK-3395,1 51130U 22005AC  23221.02366770  .00001022  00000-0  82274-4 0  9992,2 51130  53.2162 215.4032 0001214  90.4325 269.6806 15.08835403 87389,6917.894,95.438,540.599,538.92,0.0
51130.0,STARLINK-3395,PAYLOAD,2023-08-10 16:18:43,15.08841858,0.0001104,53.2156,207.9677,99.3571,260.7546,2.5613e-05,1.2e-06,0.0,0 STARLINK-3395,1 51130U 22005AC  23222.67966643  .00000120  00000-0  25613-4 0  9991,2 51130  53.2156 207.9677 0001104  99.3571 260.7546 15.08841858 87634,6917.875,95.437,540.503,538.976,0.0
51130.0,STARLINK-3395,PAYLOAD,2023-08-10 22:40:16,15.08829417,0.0001201,53.2155,206.7782,95.8083,264.3046,0.00013289,1.827e-05,0.0,0 STARLINK-3395,1 51130U 22005AC  23222.94463276  .00001827  00000-0  13289-3 0  9995,2 51130  53.2155 206.7782 0001201  95.8083 264.3046 15.08829417 87670,6917.913,95.438,540.609,538.947,0.0
51130.0,STARLINK-3395,PAYLOAD,2023-08-11 08:12:34,15.08841748,0.0001089,53.2146,204.9938,88.1084,272.0032,4.5602e-05,4.38e-06,0.0,0 STARLINK-3395,1 51130U 22005AC  23223.34206725  .00000438  00000-0  45602-4 0  9996,2 51130  53.2146 204.9938 0001089  88.1084 272.0032 15.08841748 87732,6917.875,95.437,540.493,538.987,0.0
51130.0,STARLINK-3395,PAYLOAD,2023-08-11 16:09:30,15.08836741,0.0001244,53.2145,203.5068,89.4243,270.6892,7.2336e-07,-2.76e-06,0.0,0 STARLINK-3395,1 51130U 22005AC  23223.67327231 -.00000276  00000-0  72336-6 0  9995,2 51130  53.2145 203.5068 0001244  89.4243 270.6892 15.08836741 87784,6917.89,95.438,540.616,538.895,0.0
51130.0,STARLINK-3395,PAYLOAD,2023-08-12 22:21:50,15.0883502,0.0001285,53.2153,197.8573,91.9929,268.121,0.00015963,2.253e-05,0.0,0 STARLINK-3395,1 51130U 22005AC  23224.93183209  .00002253  00000-0  15963-3 0  9996,2 51130  53.2153 197.8573 0001285  91.9929 268.1210 15.08835020 87979,6917.896,95.438,540.65,538.872,0.0
51130.0,STARLINK-3395,PAYLOAD,2023-08-13 07:54:08,15.08846474,0.0001247,53.2155,196.0739,86.6405,273.473,9.1559e-05,1.17e-05,0.0,0 STARLINK-3395,1 51130U 22005AC  23225.32926624  .00001170  00000-0  91559-4 0  9999,2 51130  53.2155 196.0739 0001247  86.6405 273.4730 15.08846474 88033,6917.861,95.437,540.588,538.863,0.0
51130.0,STARLINK-3395,PAYLOAD,2023-08-14 07:44:55,15.08841644,0.0001387,53.2163,191.6124,96.6699,263.4451,8.0798e-05,9.98e-06,0.0,0 STARLINK-3395,1 51130U 22005AC  23226.32287015  .00000998  00000-0  80798-4 0  9994,2 51130  53.2163 191.6124 0001387  96.6699 263.4451 15.08841644 88181,6917.875,95.437,540.7,538.781,0.0
51130.0,STARLINK-3395,PAYLOAD,2023-08-16 01:04:57,15.08842929,0.0001302,53.2159,183.8822,96.8303,263.2837,5.6662e-05,6.14e-06,0.0,0 STARLINK-3395,1 51130U 22005AC  23228.04511168  .00000614  00000-0  56662-4 0  9992,2 51130  53.2159 183.8822 0001302  96.8303 263.2837 15.08842929 88447,6917.871,95.437,540.637,538.836,0.0
51130.0,STARLINK-3395,PAYLOAD,2023-08-16 05:51:06,15.08850928,0.00013,53.2169,182.9906,95.6737,264.4403,4.1606e-05,3.74e-06,0.0,0 STARLINK-3395,1 51130U 22005AC  23228.24382732  .00000374  00000-0  41606-4 0  9992,2 51130  53.2169 182.9906 0001300  95.6737 264.4403 15.08850928 88470,6917.847,95.437,540.611,538.813,0.0
51130.0,STARLINK-3395,PAYLOAD,2023-08-17 05:41:55,15.08838498,0.0001425,53.2172,178.5317,91.9308,268.1847,0.000111,1.479e-05,0.0,0 STARLINK-3395,1 51130U 22005AC  23229.23744893  .00001479  00000-0  11100-3 0  9994,2 51130  53.2172 178.5317 0001425  91.9308 268.1847 15.08838498 88620,6917.885,95.438,540.736,538.764,0.0
51130.0,STARLINK-3395,PAYLOAD,2023-08-18 03:57:17,15.08862195,0.0001423,53.2173,174.3673,84.4218,275.6937,0.00022562,3.307e-05,0.0,0 STARLINK-3395,1 51130U 22005AC  23230.16478484  .00003307  00000-0  22562-3 0  9994,2 51130  53.2173 174.3673 0001423  84.4218 275.6937 15.08862195 88764,6917.813,95.436,540.662,538.693,0.0
51130.0,STARLINK-3395,PAYLOAD,2023-08-18 13:29:37,15.08844128,0.000192,53.2164,172.5826,83.0434,277.0777,0.00012137,1.644e-05,0.0,0 STARLINK-3395,1 51130U 22005AC  23230.56224011  .00001644  00000-0  12137-3 0  9992,2 51130  53.2164 172.5826 0001920  83.0434 277.0777 15.08844128 88822,6917.868,95.437,541.061,538.405,0.0
51130.0,STARLINK-3395,PAYLOAD,2023-08-20 02:03:29,15.08847884,0.0001447,53.2166,165.7429,87.796,272.3198,-0.00012943,-2.348e-05,0.0,0 STARLINK-3395,1 51130U 22005AC  23232.08575638 -.00002348  00000-0 -12943-3 0  9994,2 51130  53.2166 165.7429 0001447  87.7960 272.3198 15.08847884 89059,6917.856,95.437,540.722,538.72,0.0
51130.0,STARLINK-3395,PAYLOAD,2023-08-21 19:23:31,15.08837652,0.000136,53.216,158.0097,97.1831,262.9315,6.4319e-05,7.36e-06,0.0,0 STARLINK-3395,1 51130U 22005AC  23233.80800097  .00000736  00000-0  64319-4 0  9997,2 51130  53.2160 158.0097 0001360  97.1831 262.9315 15.08837652 89312,6917.888,95.438,540.693,538.812,0.0
51130.0,STARLINK-3395,PAYLOAD,2023-08-23 00:00:27,15.0884391,0.0001434,53.2179,152.6577,105.194,254.9211,-1.507e-05,-5.28e-06,0.0,0 STARLINK-3395,1 51130U 22005AC  23235.00032159 -.00000528  00000-0 -15070-4 0  9998,2 51130  53.2179 152.6577 0001434 105.1940 254.9211 15.08843910 89497,6917.868,95.437,540.725,538.741,0.0
51130.0,STARLINK-3395,PAYLOAD,2023-08-24 04:37:24,15.08838186,0.0001316,53.2179,147.3065,92.5395,267.5748,0.00010597,1.399e-05,0.0,0 STARLINK-3395,1 51130U 22005AC  23236.19264634  .00001399  00000-0  10597-3 0  9997,2 51130  53.2179 147.3065 0001316  92.5395 267.5748 15.08838186 88552,6917.886,95.438,540.661,538.841,0.0
51130.0,STARLINK-3395,PAYLOAD,2023-08-25 02:52:48,15.08841993,0.0001248,53.2176,143.1435,86.8091,273.3043,0.00014354,1.997e-05,0.0,0 STARLINK-3395,1 51130U 22005AC  23237.12000498  .00001997  00000-0  14354-3 0  9996,2 51130  53.2176 143.1435 0001248  86.8091 273.3043 15.08841993 89810,6917.874,95.437,540.603,538.876,0.0
51130.0,STARLINK-3395,PAYLOAD,2023-08-25 04:28:11,15.08843158,0.0001263,53.2176,142.8458,86.9838,273.1299,0.00015148,2.124e-05,0.0,0 STARLINK-3395,1 51130U 22005AC  23237.18624407  .00002124  00000-0  15148-3 0  9999,2 51130  53.2176 142.8458 0001263  86.9838 273.1299 15.08843158 88701,6917.871,95.437,540.609,538.862,0.0
51130.0,STARLINK-3395,PAYLOAD,2023-08-25 23:32:49,15.08839382,0.0001423,53.2183,139.2761,84.7132,275.4023,8.515e-05,1.067e-05,0.0,0 STARLINK-3395,1 51130U 22005AC  23237.98113001  .00001067  00000-0  85150-4 0  9996,2 51130  53.2183 139.2761 0001423  84.7132 275.4023 15.08839382 89948,6917.882,95.438,540.732,538.763,0.0
51130.0,STARLINK-3395,PAYLOAD,2023-08-26 02:43:35,15.08842363,0.0001458,53.2181,138.6827,83.3363,276.7795,9.6909e-05,1.255e-05,0.0,0 STARLINK-3395,1 51130U 22005AC  23238.11360818  .00001255  00000-0  96909-4 0  9995,2 51130  53.2181 138.6827 0001458  83.3363 276.7795 15.08842363 88842,6917.873,95.437,540.747,538.73,0.0
51130.0,STARLINK-3395,PAYLOAD,2023-08-27 02:34:20,15.08867428,0.0001497,53.2172,134.2211,88.6357,271.4806,0.00063007,9.761e-05,0.0,0 STARLINK-3395,1 51130U 22005AC  23239.10718616  .00009761  00000-0  63007-3 0  9990,2 51130  53.2172 134.2211 0001497  88.6357 271.4806 15.08867428 90112,6917.797,95.436,540.697,538.626,0.0
51130.0,STARLINK-3395,PAYLOAD,2023-08-27 05:45:06,15.0888207,0.0001357,53.2162,133.6274,95.9046,264.21,0.00080927,0.0001263,0.0,0 STARLINK-3395,1 51130U 22005AC  23239.23966091  .00012630  00000-0  80927-3 0  9995,2 51130  53.2162 133.6274 0001357  95.9046 264.2100 15.08882070 90133,6917.752,95.435,540.556,538.678,0.0
51130.0,STARLINK-3395,PAYLOAD,2023-08-27 16:52:50,15.08820558,0.0001196,53.2159,131.547,75.7986,284.3138,-0.00060479,-9.895e-05,0.0,0 STARLINK-3395,1 51130U 22005AC  23239.70336177 -.00009895  00000-0 -60479-3 0  9994,2 51130  53.2159 131.5470 0001196  75.7986 284.3138 15.08820558 90209,6917.94,95.439,540.632,538.977,0.0
51130.0,STARLINK-3395,PAYLOAD,2023-08-27 21:38:59,15.0882942,0.0001378,53.216,130.6555,93.44,266.675,-0.00035736,-5.969e-05,0.0,0 STARLINK-3395,1 51130U 22005AC  23239.90207587 -.00005969  00000-0 -35736-3 0  9994,2 51130  53.2160 130.6555 0001378  93.4400 266.6750 15.08829420 89113,6917.913,95.438,540.731,538.824,0.0
51130.0,STARLINK-3395,PAYLOAD,2023-08-28 02:25:09,15.08820856,0.0001352,53.2162,129.7639,96.4643,263.6503,0.0013437,0.0002115,0.0,0 STARLINK-3395,1 51130U 22005AC  23240.10080165  .00021150  00000-0  13437-2 0  9990,2 51130  53.2162 129.7639 0001352  96.4643 263.6503 15.08820856 90266,6917.939,95.439,540.739,538.869,0.0
51130.0,STARLINK-3395,PAYLOAD,2023-08-28 16:43:37,15.08835501,0.0001403,53.2164,127.0872,99.7025,260.4126,0.0010893,0.00017089,0.0,0 STARLINK-3395,1 51130U 22005AC  23240.69696740  .00017089  00000-0  10893-2 0  9995,2 51130  53.2164 127.0872 0001403  99.7025 260.4126 15.08835501 90354,6917.894,95.438,540.73,538.789,0.0
51130.0,STARLINK-3395,PAYLOAD,2023-08-28 21:29:47,15.08842938,0.000141,53.2164,126.195,98.609,261.5062,0.0011215,0.00017607,0.0,0 STARLINK-3395,1 51130U 22005AC  23240.89568721  .00017607  00000-0  11215-2 0  9999,2 51130  53.2164 126.1950 0001410  98.6090 261.5062 15.08842938 89260,6917.871,95.437,540.712,538.761,0.0
51130.0,STARLINK-3395,PAYLOAD,2023-08-29 19:45:11,15.08841212,0.0001477,53.2168,122.0317,100.5228,259.593,0.00039913,6.07e-05,0.0,0 STARLINK-3395,1 51130U 22005AC  23241.82305026  .00006070  00000-0  39913-3 0  9998,2 51130  53.2168 122.0317 0001477 100.5228 259.5930 15.08841212 89406,6917.877,95.437,540.763,538.72,0.0
51130.0,STARLINK-3395,PAYLOAD,2023-08-30 02:06:44,15.08840641,0.000141,53.2167,120.8421,99.7275,260.3877,0.00028624,4.271e-05,0.0,0 STARLINK-3395,1 51130U 22005AC  23242.08801042  .00004271  00000-0  28624-3 0  9994,2 51130  53.2167 120.8421 0001410  99.7275 260.3877 15.08840641 90569,6917.878,95.438,540.719,538.768,0.0
